{
  "type": "FeatureCollection",
  "features": [
    {
      "type": "Feature",
      "properties": {
        "norad_id": 58701,
        "name": "TIANMU-1 16",
        "group": "weather",
        "lat": 76.49616405568707,
        "lon": 128.78011236790095,
        "alt_km": 487.19008186299016,
        "timestamp": "2025-12-06T22:38:42.378357+00:00",
        "meta_object_name": "TIANMU-1 16",
        "meta_object_id": "2024-004B",
        "meta_epoch": "2025-12-06T14:25:25.301856",
        "meta_mean_motion": 15.24308595,
        "meta_eccentricity": 0.0004859,
        "meta_inclination": 97.4563,
        "meta_ra_of_asc_node": 161.4887,
        "meta_arg_of_pericenter": 322.1576,
        "meta_mean_anomaly": 37.9319,
        "meta_ephemeris_type": 0,
        "meta_classification_type": "U",
        "meta_norad_cat_id": 58701,
        "meta_element_set_no": 999,
        "meta_rev_at_epoch": 10641,
        "meta_bstar": 0.00046254925,
        "meta_mean_motion_dot": 0.00011245,
        "meta_mean_motion_ddot": 0,
        "tle_line1": "1 58701U 24004B   25340.60098729  .00011245  00000+0  46255-3 0  9993",
        "tle_line2": "2 58701  97.4563 161.4887 0004859 322.1576  37.9319 15.24308595106410"
      },
      "geometry": {
        "type": "Point",
        "coordinates": [
          128.78011236790095,
          76.49616405568707
        ]
      }
    },
    {
      "type": "Feature",
      "properties": {
        "norad_id": 58702,
        "name": "TIANMU-1 17",
        "group": "weather",
        "lat": 17.496834309958565,
        "lon": -15.39616873571912,
        "alt_km": 495.935478143856,
        "timestamp": "2025-12-06T22:38:42.378367+00:00",
        "meta_object_name": "TIANMU-1 17",
        "meta_object_id": "2024-004C",
        "meta_epoch": "2025-12-06T14:03:29.826432",
        "meta_mean_motion": 15.24353981,
        "meta_eccentricity": 0.00040788,
        "meta_inclination": 97.4598,
        "meta_ra_of_asc_node": 161.8804,
        "meta_arg_of_pericenter": 326.2978,
        "meta_mean_anomaly": 33.8,
        "meta_ephemeris_type": 0,
        "meta_classification_type": "U",
        "meta_norad_cat_id": 58702,
        "meta_element_set_no": 999,
        "meta_rev_at_epoch": 10640,
        "meta_bstar": 0.00047061568,
        "meta_mean_motion_dot": 0.00011457,
        "meta_mean_motion_ddot": 0,
        "tle_line1": "1 58702U 24004C   25340.58576188  .00011457  00000+0  47062-3 0  9993",
        "tle_line2": "2 58702  97.4598 161.8804 0004078 326.2978  33.8000 15.24353981106406"
      },
      "geometry": {
        "type": "Point",
        "coordinates": [
          -15.39616873571912,
          17.496834309958565
        ]
      }
    },
    {
      "type": "Feature",
      "properties": {
        "norad_id": 58703,
        "name": "TIANMU-1 18",
        "group": "weather",
        "lat": -72.38792263957842,
        "lon": -41.953925234052534,
        "alt_km": 499.36685646531896,
        "timestamp": "2025-12-06T22:38:42.378379+00:00",
        "meta_object_name": "TIANMU-1 18",
        "meta_object_id": "2024-004D",
        "meta_epoch": "2025-12-06T13:39:24.167808",
        "meta_mean_motion": 15.24344635,
        "meta_eccentricity": 0.00034142,
        "meta_inclination": 97.4616,
        "meta_ra_of_asc_node": 162.0578,
        "meta_arg_of_pericenter": 328.3658,
        "meta_mean_anomaly": 31.7373,
        "meta_ephemeris_type": 0,
        "meta_classification_type": "U",
        "meta_norad_cat_id": 58703,
        "meta_element_set_no": 999,
        "meta_rev_at_epoch": 10640,
        "meta_bstar": 0.0004406585,
        "meta_mean_motion_dot": 0.00010719,
        "meta_mean_motion_ddot": 0,
        "tle_line1": "1 58703U 24004D   25340.56902972  .00010719  00000+0  44066-3 0  9997",
        "tle_line2": "2 58703  97.4616 162.0578 0003414 328.3658  31.7373 15.24344635106406"
      },
      "geometry": {
        "type": "Point",
        "coordinates": [
          -41.953925234052534,
          -72.38792263957842
        ]
      }
    },
    {
      "type": "Feature",
      "properties": {
        "norad_id": 58990,
        "name": "INSAT-3DS",
        "group": "weather",
        "lat": 0.01746113488008674,
        "lon": 137.71645574584724,
        "alt_km": 35790.8316267074,
        "timestamp": "2025-12-06T22:38:42.378391+00:00",
        "meta_object_name": "INSAT-3DS",
        "meta_object_id": "2024-033A",
        "meta_epoch": "2025-12-06T12:20:42.166752",
        "meta_mean_motion": 1.00269639,
        "meta_eccentricity": 0.00017279,
        "meta_inclination": 0.0085,
        "meta_ra_of_asc_node": 26.1746,
        "meta_arg_of_pericenter": 235.9597,
        "meta_mean_anomaly": 80.688,
        "meta_ephemeris_type": 0,
        "meta_classification_type": "U",
        "meta_norad_cat_id": 58990,
        "meta_element_set_no": 999,
        "meta_rev_at_epoch": 4513,
        "meta_bstar": 0,
        "meta_mean_motion_dot": -1.49e-06,
        "meta_mean_motion_ddot": 0,
        "tle_line1": "1 58990U 24033A   25340.51437693 -.00000149  00000+0  00000+0 0  9998",
        "tle_line2": "2 58990   0.0085  26.1746 0001727 235.9597  80.6880  1.00269639 45138"
      },
      "geometry": {
        "type": "Point",
        "coordinates": [
          137.71645574584724,
          0.01746113488008674
        ]
      }
    },
    {
      "type": "Feature",
      "properties": {
        "norad_id": 59051,
        "name": "METEOR-M2 4",
        "group": "weather",
        "lat": 33.12456747540812,
        "lon": -67.77431545051896,
        "alt_km": 810.1308782630886,
        "timestamp": "2025-12-06T22:38:42.378402+00:00",
        "meta_object_name": "METEOR-M2 4",
        "meta_object_id": "2024-039A",
        "meta_epoch": "2025-12-06T14:02:48.710400",
        "meta_mean_motion": 14.22399782,
        "meta_eccentricity": 0.00073879,
        "meta_inclination": 98.6758,
        "meta_ra_of_asc_node": 297.5909,
        "meta_arg_of_pericenter": 15.9734,
        "meta_mean_anomaly": 344.1676,
        "meta_ephemeris_type": 0,
        "meta_classification_type": "U",
        "meta_norad_cat_id": 59051,
        "meta_element_set_no": 999,
        "meta_rev_at_epoch": 9188,
        "meta_bstar": 5.9075195e-05,
        "meta_mean_motion_dot": 8.8e-07,
        "meta_mean_motion_ddot": 0,
        "tle_line1": "1 59051U 24039A   25340.58528600  .00000088  00000+0  59075-4 0  9991",
        "tle_line2": "2 59051  98.6758 297.5909 0007387  15.9734 344.1676 14.22399782 91884"
      },
      "geometry": {
        "type": "Point",
        "coordinates": [
          -67.77431545051896,
          33.12456747540812
        ]
      }
    },
    {
      "type": "Feature",
      "properties": {
        "norad_id": 60133,
        "name": "GOES 19",
        "group": "weather",
        "lat": -0.001416430425497569,
        "lon": -19.534254246688842,
        "alt_km": 35781.77694743351,
        "timestamp": "2025-12-06T22:38:42.378416+00:00",
        "meta_object_name": "GOES 19",
        "meta_object_id": "2024-119A",
        "meta_epoch": "2025-12-06T11:08:52.475136",
        "meta_mean_motion": 1.00270241,
        "meta_eccentricity": 0.00014631,
        "meta_inclination": 0.0067,
        "meta_ra_of_asc_node": 67.752,
        "meta_arg_of_pericenter": 233.8466,
        "meta_mean_anomaly": 225.9392,
        "meta_ephemeris_type": 0,
        "meta_classification_type": "U",
        "meta_norad_cat_id": 60133,
        "meta_element_set_no": 999,
        "meta_rev_at_epoch": 503,
        "meta_bstar": 0,
        "meta_mean_motion_dot": -2.41e-06,
        "meta_mean_motion_ddot": 0,
        "tle_line1": "1 60133U 24119A   25340.46449624 -.00000241  00000+0  00000+0 0  9999",
        "tle_line2": "2 60133   0.0067  67.7520 0001463 233.8466 225.9392  1.00270241  5038"
      },
      "geometry": {
        "type": "Point",
        "coordinates": [
          -19.534254246688842,
          -0.001416430425497569
        ]
      }
    },
    {
      "type": "Feature",
      "properties": {
        "norad_id": 65815,
        "name": "FENGYUN 3H",
        "group": "weather",
        "lat": -35.06868214291208,
        "lon": -73.20016333890656,
        "alt_km": 832.0607584223044,
        "timestamp": "2025-12-06T22:38:42.378428+00:00",
        "meta_object_name": "FENGYUN 3H",
        "meta_object_id": "2025-219A",
        "meta_epoch": "2025-12-06T14:21:21.809376",
        "meta_mean_motion": 14.19902081,
        "meta_eccentricity": 6.164e-05,
        "meta_inclination": 98.6575,
        "meta_ra_of_asc_node": 280.3222,
        "meta_arg_of_pericenter": 77.978,
        "meta_mean_anomaly": 282.1466,
        "meta_ephemeris_type": 0,
        "meta_classification_type": "U",
        "meta_norad_cat_id": 65815,
        "meta_element_set_no": 999,
        "meta_rev_at_epoch": 1005,
        "meta_bstar": 0.00012577714,
        "meta_mean_motion_dot": 2.24e-06,
        "meta_mean_motion_ddot": 0,
        "tle_line1": "1 65815U 25219A   25340.59816909  .00000224  00000+0  12578-3 0  9998",
        "tle_line2": "2 65815  98.6575 280.3222 0000616  77.9780 282.1466 14.19902081 10057"
      },
      "geometry": {
        "type": "Point",
        "coordinates": [
          -73.20016333890656,
          -35.06868214291208
        ]
      }
    }
  ]
}